GLOBALSTAR M069         
1 31573U 07020C   26167.52669742 -.00000049  00000+0  40073-3 0  9991
2 31573  52.0028 253.9968 0002353 146.7200 226.7144 12.23471175878724
GLOBALSTAR M072         
1 31574U 07020D   26167.11742914 -.00000103  00000+0 -26589-3 0  9998
2 31574  51.9924 103.0930 0001413 329.6442  43.6351 11.91658407874853
GLOBALSTAR M066         
1 32265U 07048C   26167.45094997 -.00000146  00000+0 -43672-3 0  9993
2 32265  51.9604  60.0258 0005482  42.4083 128.8316 12.30387680860131
GLOBALSTAR M079         
1 37188U 10054A   26167.60624343 -.00000115  00000+0 -59968-4 0  9996
2 37188  52.0035 110.4382 0000706  23.0337 148.5239 12.62266075722475
GLOBALSTAR M074         
1 37189U 10054B   26167.55329294 -.00000122  00000+0 -10398-3 0  9999
2 37189  52.0008 109.8640 0000530  50.1634 120.8911 12.62268368723075
GLOBALSTAR M076         
1 37190U 10054C   26167.57965447 -.00000126  00000+0 -12145-3 0  9995
2 37190  52.0021 109.9867 0000723  41.4692 129.5221 12.62261751722792
GLOBALSTAR M077         
1 37191U 10054D   26167.34056774 -.00000077  00000+0  22025-4 0  9998
2 37191  51.9920 181.4450 0002745 171.0458 202.3130 11.67547806721046
GLOBALSTAR M075         
1 37192U 10054E   26167.26117462 -.00000123  00000+0 -10980-3 0  9991
2 37192  51.9922 153.0121 0000148  20.9904  81.9653 12.62267369721828
GLOBALSTAR M073         
1 37193U 10054F   26167.00426021 -.00000103  00000+0  39923-5 0  9995
2 37193  52.0070  67.8932 0000907  45.3174 328.1165 12.62262106723785
GLOBALSTAR M083         
1 37739U 11033A   26167.28944755 -.00000091  00000+0  69108-4 0  9991
2 37739  51.9877  15.2552 0000924  65.4440 106.0167 12.62263078692832
GLOBALSTAR M088         
1 37740U 11033B   26167.48039468 -.00000085  00000+0  10558-3 0  9998
2 37740  52.0220 281.1015 0000715 126.3042 311.6052 12.62268707688408
GLOBALSTAR M091         
1 37741U 11033C   26167.47915524 -.00000079  00000+0  13684-3 0  9990
2 37741  51.9992 244.0718 0000316 153.1841 220.0751 12.62263889689195
GLOBALSTAR M085         
1 37742U 11033D   26167.38668836 -.00000091  00000+0  71541-4 0  9993
2 37742  52.0102 195.6438 0000115 280.2541  92.7049 12.62264158689696
GLOBALSTAR M081         
1 37743U 11033E   26167.33390185 -.00000083  00000+0  11702-3 0  9991
2 37743  51.9935 198.2418 0000123 107.7851 264.8224 12.62265083689833
GLOBALSTAR M089         
1 37744U 11033F   26167.21510170 -.00000115  00000+0 -60606-4 0  9992
2 37744  51.9906 152.7614 0000352  86.9383 286.4269 12.62267216690669
GLOBALSTAR M084         
1 38040U 11080A   26167.34207931 -.00000094  00000+0  54754-4 0  9998
2 38040  52.0029  19.8552 0001090  84.5225  86.0678 12.62267557668650
GLOBALSTAR M080         
1 38041U 11080B   26167.31362811 -.00000088  00000+0  87727-4 0  9994
2 38041  52.0081  21.6599 0000376  69.1135 102.1649 12.62269401668777
GLOBALSTAR M082         
1 38042U 11080C   26167.62500337 -.00000113  00000+0 -50996-4 0  9994
2 38042  52.0104 336.2128 0000502  99.9714 336.9875 12.62263559669522
GLOBALSTAR M092         
1 38043U 11080D   26167.46121145 -.00000103  00000+0  50001-5 0  9999
2 38043  52.0095  67.1077 0000689  61.6444 109.6653 12.62266923667959
GLOBALSTAR M090         
1 38044U 11080E   26166.76653315 -.00000099  00000+0  27357-4 0  9992
2 38044  52.0143 332.7812 0000798  89.9015 283.1384 12.62269067669537
GLOBALSTAR M086         
1 38045U 11080F   26167.21915199 -.00000098  00000+0  31555-4 0  9999
2 38045  51.9915 331.3351 0001674  66.2897 105.4460 12.62286675669531
GLOBALSTAR M097         
1 39072U 13005A   26167.52940092 -.00000077  00000+0  14894-3 0  9996
2 39072  52.0041 245.3397 0000302 128.2604 231.8290 12.62247237616820
GLOBALSTAR M093         
1 39073U 13005B   26167.50262588 -.00000071  00000+0  18442-3 0  9999
2 39073  52.0099 238.7674 0000192  93.2383 266.8506 12.62265971616777
GLOBALSTAR M094         
1 39074U 13005C   26167.26497125 -.00000124  00000+0 -11123-3 0  9999
2 39074  51.9928 153.6068 0000380 358.7786   1.3080 12.62268588618356
GLOBALSTAR M096         
1 39075U 13005D   26167.35763128 -.00000091  00000+0  73496-4 0  9993
2 39075  52.0051 202.1267 0000043 249.6985 110.3877 12.62265616617287
GLOBALSTAR M078         
1 39076U 13005E   26167.64738218 -.00000168  00000+0 -35933-3 0  9997
2 39076  51.9887 285.2545 0000522 226.2981 133.7842 12.62257688615945
GLOBALSTAR M095         
1 39077U 13005F   26167.59494808 -.00000088  00000+0  90108-4 0  9992
2 39077  52.0093 283.0179 0000243 131.0407 229.0481 12.62263409615791
GLOBALSTAR M087         
1 52888U 22064A   26167.44982237 -.00000095  00000+0  50252-4 0  9998
2 52888  52.0008  64.6973 0000748  37.4893 322.6026 12.62269036191049
